PERSEUS-M1              
1 40039U 14033AF  26169.30730819  .00001309  00000+0  12317-3 0  9991
2 40039  97.9641 113.4573 0010224 297.0546  62.9630 14.95633663650801
POLYITAN-1              
1 40042U 14033AJ  26169.03120981  .00015610  00000+0  48715-3 0  9999
2 40042  98.0938 195.3722 0008691 138.9044 221.2853 15.33281524653721
TIGRISAT                
1 40043U 14033AK  26169.39596375  .00001621  00000+0  19130-3 0  9999
2 40043  97.7831 319.3796 0050561  71.3546 289.3150 14.85166384645806
AEROCUBE 6A             
1 40045U 14033AM  26169.42618860  .00004013  00000+0  33873-3 0  9997
2 40045  97.7249 336.3614 0038811  13.8936 346.3344 14.98119366646809
AEROCUBE 6B             
1 40046U 14033AN  26169.42731217  .00003882  00000+0  31582-3 0  9998
2 40046  97.7247 336.1555 0038212   5.1104 355.0501 14.99579623646940
CANX-4                  
1 40055U 14034C   26169.36780390  .00000730  00000+0  10096-3 0  9994
2 40055  98.3120  44.7243 0013080  13.3649 346.7906 14.81266555644700
CANX-5                  
1 40056U 14034D   26169.36622337  .00000737  00000+0  10176-3 0  9997
2 40056  98.3122  44.7663 0013089  13.5725 346.5836 14.81283826635514
UKUBE-1                 
1 40074U 14037F   26168.96158025  .00007654  00000+0  43097-3 0  9996
2 40074  98.4232 172.3147 0002640 131.7969 228.3486 15.13564400648671
BRITE-PL2 (HEWELIUSZ)   
1 40119U 14049B   26169.57828692  .00001593  00000+0  15241-3 0  9997
2 40119  97.9099 281.5889 0015324 104.3589 255.9333 14.94597585641655
AEROCUBE 5C             
1 40965U 15058B   26169.51187758  .00001689  00000+0  15833-3 0  9995
2 40965  64.7674 258.4697 0130808  62.7526 298.6842 14.91458402365853
AEROCUBE 7              
1 40966U 15058C   26169.30384389  .00002407  00000+0  20050-3 0  9998
2 40966  64.7616 241.3184 0120511  61.2612 300.0548 14.95731068366120
FOX-1A (AO-85)          
1 40967U 15058D   26169.55990194  .00001828  00000+0  17229-3 0  9993
2 40967  64.7759 274.7182 0130538  56.0558 305.2883 14.90974956113778
SINOD-D 1               
1 40968U 15058E   26169.21480976  .00002423  00000+0  20145-3 0  9992
2 40968  64.7751 255.6947 0119097  52.6726 308.5169 14.95910862116816
SNAP-3 ALICE            
1 40970U 15058G   26169.51982895  .00105258  00000+0  12412-2 0  9992
2 40970  64.7502  99.3248 0027823  12.0699 348.1107 15.60328596117097
LMRST-SAT               
1 40971U 15058H   26169.31428061  .00001659  00000+0  15881-3 0  9995
2 40971  64.7763 271.8213 0132145  58.1750 303.2148 14.90593890113725
SNAP-3 EDDIE            
1 40972U 15058J   26169.50878685  .00105510  00000+0  11843-2 0  9992
2 40972  64.7423  90.0775 0027477  16.0390 344.1620 15.61614603119233
PROPCUBE 3              
1 40973U 15058K   26169.48095276  .00002066  00000+0  17955-3 0  9990
2 40973  64.7681 248.4938 0124108  59.4060 301.9226 14.94262887114993
BISONSAT                
1 40974U 15058L   26169.28639916  .00009843  00000+0  47758-3 0  9998
2 40974  64.7580 170.0907 0079142  46.8172 313.9529 15.16210467115788
SNAP-3 JIMI             
1 40975U 15058M   26169.25429957  .00003453  00000+0  24340-3 0  9991
2 40975  64.7633 216.3962 0106226  54.9329 306.1695 15.02305085114380
PROPCUBE 1 (FLORA)      
1 40976U 15058N   26169.60601179  .00001769  00000+0  17480-3 0  9994
2 40976  64.7755 290.8386 0130821  60.3716 301.0352 14.89227470116473
SINOD-D 3               
1 40977U 15058P   26169.57978560  .00002433  00000+0  21237-3 0  9996
2 40977  64.7729 271.4706 0119331  57.5879 303.6712 14.94023001114967
HORYU-4                 
1 41340U 16012D   26169.06253989  .00440932  72868-4  98167-3 0  9999
2 41340  30.9844  72.5998 0005941 278.9863  81.0127 15.96640257570954
RAVAN                   
1 41849U 16067B   26169.20219459  .00039399  00000+0  59216-3 0  9990
2 41849  97.9884  58.8909 0004242  28.9137 331.2350 15.54764284527854
CELTEE 1                
1 41850U 16067C   26169.12892573  .00003910  00000+0  18683-3 0  9990
2 41850  98.0668  35.7600 0000980 126.8812 233.2511 15.19689359526021
OPTICUBE 04             
1 41851U 16067D   26169.53737635  .00001956  00000+0  12559-3 0  9997
2 41851  98.0698  21.8916 0016938 111.3354 248.9683 15.09664347525370
AEROCUBE 8D             
1 41852U 16067E   26169.59967923  .00005942  00000+0  24560-3 0  9993
2 41852  98.0674  39.8781 0004791 119.8253 240.3459 15.24413704526283
AEROCUBE 8C             
1 41853U 16067F   26169.16502757  .00005936  00000+0  24352-3 0  9999
2 41853  98.0544  36.6365 0006562  66.3960 293.7964 15.24657454526210
CORVUS BC2              
1 42846U 17042X   26169.39059529  .00003135  00000+0  21696-3 0  9992
2 42846  97.4071 330.6930 0014433 106.7137 253.5676 15.06304598487248
CORVUS BC1              
1 42847U 17042Y   26169.51791201  .00002736  00000+0  18905-3 0  9992
2 42847  97.4106 331.6305 0013447  85.2271 275.0492 15.06474492487290
MAKERSAT 0              
1 43016U 17073D   26169.61677883  .00014158  00000+0  38538-3 0  9990
2 43016  97.4614  52.1465 0105019 267.8006  91.1207 15.32138108466687
